start=new Date('2022-04-18T00:00:00.000Z').valueOf();
sats=[{"MEAN_ANOMALY":"303.1914","PERIAPSIS":"546.008","OBJECT_ID":"2021-038AK","ECCENTRICITY":"0.00017700","MEAN_MOTION_DDOT":"0.0000000000000","ELEMENT_SET_NO":"999","DECAY_DATE":null,"FILE":"3405839","GP_ID":"201495476","INCLINATION":"53.0547","MEAN_ELEMENT_THEORY":"SGP4","SITE":"AFETR","CLASSIFICATION_TYPE":"U","OBJECT_NAME":"STARLINK-2606","RCS_SIZE":"LARGE","EPHEMERIS_TYPE":"0","ARG_OF_PERICENTER":"56.9245","RA_OF_ASC_NODE":"249.6471","OBJECT_TYPE":"PAYLOAD","EPOCH":"2022-04-17T19:40:27.256224","TLE_LINE1":"1 48386U 21038AK  22107.81975991  .00013968  00000-0  95490-3 0  9991","NORAD_CAT_ID":"48386","APOAPSIS":"548.460","LAUNCH_DATE":"2021-05-04","TIME_SYSTEM":"UTC","REV_AT_EPOCH":"5292","SEMIMAJOR_AXIS":"6925.369","MEAN_MOTION":"15.06393303","BSTAR":"0.00095490000000","TLE_LINE2":"2 48386  53.0547 249.6471 0001770  56.9245 303.1914 15.06393303 52926","CENTER_NAME":"EARTH","COUNTRY_CODE":"US","PERIOD":"95.593","REF_FRAME":"TEME","MEAN_MOTION_DOT":"0.00013968"},{"SITE":"AFETR","CLASSIFICATION_TYPE":"U","OBJECT_NAME":"STARLINK-2600","RCS_SIZE":"LARGE","EPHEMERIS_TYPE":"0","ARG_OF_PERICENTER":"43.6305","RA_OF_ASC_NODE":"249.4975","OBJECT_TYPE":"PAYLOAD","TLE_LINE1":"1 48387U 21038AL  22107.85293635  .00024872  00000-0  16832-2 0  9992","EPOCH":"2022-04-17T20:28:13.700640","MEAN_ANOMALY":"316.4820","PERIAPSIS":"546.046","OBJECT_ID":"2021-038AL","ECCENTRICITY":"0.00017320","MEAN_MOTION_DDOT":"0.0000000000000","ELEMENT_SET_NO":"999","DECAY_DATE":null,"FILE":"3405839","GP_ID":"201496216","INCLINATION":"53.0539","MEAN_ELEMENT_THEORY":"SGP4","TLE_LINE2":"2 48387  53.0539 249.4975 0001732  43.6305 316.4820 15.06389515 52937","CENTER_NAME":"EARTH","COUNTRY_CODE":"US","PERIOD":"95.593","REF_FRAME":"TEME","MEAN_MOTION_DOT":"0.00024872","APOAPSIS":"548.445","NORAD_CAT_ID":"48387","TIME_SYSTEM":"UTC","LAUNCH_DATE":"2021-05-04","REV_AT_EPOCH":"5293","SEMIMAJOR_AXIS":"6925.381","MEAN_MOTION":"15.06389515","BSTAR":"0.00168320000000"},{"MEAN_MOTION_DDOT":"0.0000000000000","ECCENTRICITY":"0.00018850","OBJECT_ID":"2021-038AM","PERIAPSIS":"545.932","MEAN_ANOMALY":"297.3908","MEAN_ELEMENT_THEORY":"SGP4","INCLINATION":"53.0550","GP_ID":"201494475","DECAY_DATE":null,"FILE":"3405839","ELEMENT_SET_NO":"999","RCS_SIZE":"LARGE","OBJECT_NAME":"STARLINK-2594","CLASSIFICATION_TYPE":"U","SITE":"AFETR","TLE_LINE1":"1 48388U 21038AM  22107.84651299  .00028130  00000-0  19002-2 0  9999","EPOCH":"2022-04-17T20:18:58.722336","OBJECT_TYPE":"PAYLOAD","ARG_OF_PERICENTER":"62.7272","RA_OF_ASC_NODE":"249.5190","EPHEMERIS_TYPE":"0","REV_AT_EPOCH":"5293","SEMIMAJOR_AXIS":"6925.373","TIME_SYSTEM":"UTC","LAUNCH_DATE":"2021-05-04","APOAPSIS":"548.543","NORAD_CAT_ID":"48388","BSTAR":"0.00190020000000","MEAN_MOTION":"15.06392084","CENTER_NAME":"EARTH","TLE_LINE2":"2 48388  53.0550 249.5190 0001885  62.7272 297.3908 15.06392084 52934","MEAN_MOTION_DOT":"0.00028130","REF_FRAME":"TEME","PERIOD":"95.593","COUNTRY_CODE":"US"},{"EPHEMERIS_TYPE":"0","ARG_OF_PERICENTER":"61.0569","RA_OF_ASC_NODE":"244.5779","OBJECT_TYPE":"PAYLOAD","TLE_LINE1":"1 48389U 21038AN  22107.83406923  .00016117  00000-0  10990-2 0  9990","EPOCH":"2022-04-17T20:01:03.581472","SITE":"AFETR","CLASSIFICATION_TYPE":"U","OBJECT_NAME":"STARLINK-1904","RCS_SIZE":"LARGE","ELEMENT_SET_NO":"999","FILE":"3405839","DECAY_DATE":null,"GP_ID":"201494725","INCLINATION":"53.0553","MEAN_ELEMENT_THEORY":"SGP4","MEAN_ANOMALY":"299.0605","PERIAPSIS":"545.989","OBJECT_ID":"2021-038AN","ECCENTRICITY":"0.00018550","MEAN_MOTION_DDOT":"0.0000000000000","COUNTRY_CODE":"US","PERIOD":"95.593","REF_FRAME":"TEME","MEAN_MOTION_DOT":"0.00016117","TLE_LINE2":"2 48389  53.0553 244.5779 0001855  61.0569 299.0605 15.06380351 52997","CENTER_NAME":"EARTH","MEAN_MOTION":"15.06380351","BSTAR":"0.00109900000000","APOAPSIS":"548.558","NORAD_CAT_ID":"48389","LAUNCH_DATE":"2021-05-04","TIME_SYSTEM":"UTC","SEMIMAJOR_AXIS":"6925.409","REV_AT_EPOCH":"5299"},{"MEAN_ANOMALY":"313.1696","PERIAPSIS":"545.979","OBJECT_ID":"2021-038AP","MEAN_MOTION_DDOT":"0.0000000000000","ECCENTRICITY":"0.00018210","ELEMENT_SET_NO":"999","GP_ID":"201495968","FILE":"3405839","DECAY_DATE":null,"MEAN_ELEMENT_THEORY":"SGP4","INCLINATION":"53.0540","SITE":"AFETR","CLASSIFICATION_TYPE":"U","OBJECT_NAME":"STARLINK-2586","RCS_SIZE":"LARGE","EPHEMERIS_TYPE":"0","OBJECT_TYPE":"PAYLOAD","RA_OF_ASC_NODE":"244.6007","ARG_OF_PERICENTER":"46.9445","TLE_LINE1":"1 48390U 21038AP  22107.83038493  .00002911  00000-0  21429-3 0  9992","EPOCH":"2022-04-17T19:55:45.257952","NORAD_CAT_ID":"48390","APOAPSIS":"548.502","LAUNCH_DATE":"2021-05-04","TIME_SYSTEM":"UTC","REV_AT_EPOCH":"5421","SEMIMAJOR_AXIS":"6925.376","MEAN_MOTION":"15.06391182","BSTAR":"0.00021429000000","TLE_LINE2":"2 48390  53.0540 244.6007 0001821  46.9445 313.1696 15.06391182 54217","CENTER_NAME":"EARTH","COUNTRY_CODE":"US","PERIOD":"95.593","REF_FRAME":"TEME","MEAN_MOTION_DOT":"0.00002911"},{"BSTAR":"0.00099535000000","MEAN_MOTION":"15.06384563","REV_AT_EPOCH":"5421","SEMIMAJOR_AXIS":"6925.396","LAUNCH_DATE":"2021-05-04","TIME_SYSTEM":"UTC","APOAPSIS":"548.646","NORAD_CAT_ID":"48391","MEAN_MOTION_DOT":"0.00014569","REF_FRAME":"TEME","PERIOD":"95.593","COUNTRY_CODE":"US","CENTER_NAME":"EARTH","TLE_LINE2":"2 48391  53.0551 244.6162 0002000  50.3686 309.7479 15.06384563 54213","MEAN_ELEMENT_THEORY":"SGP4","INCLINATION":"53.0551","GP_ID":"201495725","DECAY_DATE":null,"FILE":"3405839","ELEMENT_SET_NO":"999","MEAN_MOTION_DDOT":"0.0000000000000","ECCENTRICITY":"0.00020000","OBJECT_ID":"2021-038AQ","PERIAPSIS":"545.876","MEAN_ANOMALY":"309.7479","TLE_LINE1":"1 48391U 21038AQ  22107.82669878  .00014569  00000-0  99535-3 0  9994","EPOCH":"2022-04-17T19:50:26.774592","OBJECT_TYPE":"PAYLOAD","RA_OF_ASC_NODE":"244.6162","ARG_OF_PERICENTER":"50.3686","EPHEMERIS_TYPE":"0","RCS_SIZE":"LARGE","OBJECT_NAME":"STARLINK-2607","CLASSIFICATION_TYPE":"U","SITE":"AFETR"},{"PERIAPSIS":"546.010","MEAN_ANOMALY":"307.9191","MEAN_MOTION_DDOT":"0.0000000000000","ECCENTRICITY":"0.00017730","OBJECT_ID":"2021-038AR","ELEMENT_SET_NO":"999","MEAN_ELEMENT_THEORY":"SGP4","INCLINATION":"53.0558","GP_ID":"201494967","FILE":"3405839","DECAY_DATE":null,"CLASSIFICATION_TYPE":"U","SITE":"AFETR","RCS_SIZE":"LARGE","OBJECT_NAME":"STARLINK-2605","OBJECT_TYPE":"PAYLOAD","ARG_OF_PERICENTER":"52.1958","RA_OF_ASC_NODE":"244.9316","EPHEMERIS_TYPE":"0","EPOCH":"2022-04-17T18:09:35.337600","TLE_LINE1":"1 48392U 21038AR  22107.75665900 -.00000759  00000-0 -32094-4 0  9995","LAUNCH_DATE":"2021-05-04","TIME_SYSTEM":"UTC","NORAD_CAT_ID":"48392","APOAPSIS":"548.466","SEMIMAJOR_AXIS":"6925.373","REV_AT_EPOCH":"5420","MEAN_MOTION":"15.06391937","BSTAR":"-0.00003209400000","TLE_LINE2":"2 48392  53.0558 244.9316 0001773  52.1958 307.9191 15.06391937 54206","CENTER_NAME":"EARTH","PERIOD":"95.593","COUNTRY_CODE":"US","MEAN_MOTION_DOT":"-0.00000759","REF_FRAME":"TEME"},{"BSTAR":"0.00000047316000","MEAN_MOTION":"15.06387141","SEMIMAJOR_AXIS":"6925.388","REV_AT_EPOCH":"5420","NORAD_CAT_ID":"48393","APOAPSIS":"548.444","LAUNCH_DATE":"2021-05-04","TIME_SYSTEM":"UTC","REF_FRAME":"TEME","MEAN_MOTION_DOT":"-0.00000275","COUNTRY_CODE":"US","PERIOD":"95.593","CENTER_NAME":"EARTH","TLE_LINE2":"2 48393  53.0544 244.9523 0001720  49.7165 310.3974 15.06387141 54205","DECAY_DATE":null,"FILE":"3405839","GP_ID":"201495217","INCLINATION":"53.0544","MEAN_ELEMENT_THEORY":"SGP4","ELEMENT_SET_NO":"999","OBJECT_ID":"2021-038AS","ECCENTRICITY":"0.00017200","MEAN_MOTION_DDOT":"0.0000000000000","MEAN_ANOMALY":"310.3974","PERIAPSIS":"546.062","EPOCH":"2022-04-17T18:04:16.816224","TLE_LINE1":"1 48393U 21038AS  22107.75297241 -.00000275  00000-0  47316-6 0  9992","EPHEMERIS_TYPE":"0","ARG_OF_PERICENTER":"49.7165","RA_OF_ASC_NODE":"244.9523","OBJECT_TYPE":"PAYLOAD","OBJECT_NAME":"STARLINK-2602","RCS_SIZE":"LARGE","SITE":"AFETR","CLASSIFICATION_TYPE":"U"},{"CENTER_NAME":"EARTH","TLE_LINE2":"2 48394  53.0563 244.6600 0001628  60.2547 299.8603 15.06400799 54215","REF_FRAME":"TEME","MEAN_MOTION_DOT":"0.00001348","COUNTRY_CODE":"US","PERIOD":"95.592","SEMIMAJOR_AXIS":"6925.346","REV_AT_EPOCH":"5421","APOAPSIS":"548.339","NORAD_CAT_ID":"48394","TIME_SYSTEM":"UTC","LAUNCH_DATE":"2021-05-04","BSTAR":"0.00010938000000","MEAN_MOTION":"15.06400799","OBJECT_NAME":"STARLINK-2573","RCS_SIZE":"LARGE","SITE":"AFETR","CLASSIFICATION_TYPE":"U","EPOCH":"2022-04-17T19:34:29.915328","TLE_LINE1":"1 48394U 21038AT  22107.81562402  .00001348  00000-0  10938-3 0  9992","EPHEMERIS_TYPE":"0","RA_OF_ASC_NODE":"244.6600","ARG_OF_PERICENTER":"60.2547","OBJECT_TYPE":"PAYLOAD","OBJECT_ID":"2021-038AT","ECCENTRICITY":"0.00016280","MEAN_MOTION_DDOT":"0.0000000000000","MEAN_ANOMALY":"299.8603","PERIAPSIS":"546.084","FILE":"3405839","DECAY_DATE":null,"GP_ID":"201495477","INCLINATION":"53.0563","MEAN_ELEMENT_THEORY":"SGP4","ELEMENT_SET_NO":"999"},{"MEAN_MOTION_DDOT":"0.0000000000000","ECCENTRICITY":"0.00016970","OBJECT_ID":"2021-038AU","PERIAPSIS":"546.079","MEAN_ANOMALY":"307.6758","MEAN_ELEMENT_THEORY":"SGP4","INCLINATION":"53.0557","GP_ID":"201496217","DECAY_DATE":null,"FILE":"3405839","ELEMENT_SET_NO":"999","RCS_SIZE":"LARGE","OBJECT_NAME":"STARLINK-2574","CLASSIFICATION_TYPE":"U","SITE":"AFETR","TLE_LINE1":"1 48395U 21038AU  22107.66724994  .00000740  00000-0  68621-4 0  9990","EPOCH":"2022-04-17T16:00:50.394816","OBJECT_TYPE":"PAYLOAD","ARG_OF_PERICENTER":"52.4385","RA_OF_ASC_NODE":"245.3256","EPHEMERIS_TYPE":"0","REV_AT_EPOCH":"5419","SEMIMAJOR_AXIS":"6925.389","LAUNCH_DATE":"2021-05-04","TIME_SYSTEM":"UTC","APOAPSIS":"548.430","NORAD_CAT_ID":"48395","BSTAR":"0.00006862100000","MEAN_MOTION":"15.06386692","CENTER_NAME":"EARTH","TLE_LINE2":"2 48395  53.0557 245.3256 0001697  52.4385 307.6758 15.06386692 54194","MEAN_MOTION_DOT":"0.00000740","REF_FRAME":"TEME","PERIOD":"95.593","COUNTRY_CODE":"US"}];
